     3.04           N: GNSS NAV DATA    G: GPS              RINEX VERSION / TYPE
TPP 5.1.1                               20240329 235934 UTC PGM / RUN BY / DATE 
                                                            COMMENT             
                                                            COMMENT             
                                                            COMMENT             
GPSA    .3353E-07   .7451E-08  -.1788E-06   .0000E+00       IONOSPHERIC CORR    
GPSB    .1372E+06   .0000E+00  -.3277E+06   .2621E+06       IONOSPHERIC CORR    
GPUT  -.1862645149E-08 -.532907052E-14  61440 2308          TIME SYSTEM CORR    
    18  2307     6                                          LEAP SECONDS        
                                                            END OF HEADER       
G06 2024 03 30 21 59 44  .344522763044E-03 -.172803993337E-10  .000000000000E+00
      .270000000000E+02 -.603750000000E+02  .394873590927E-08  .259911628118E+01
     -.291876494884E-05  .309752090834E-02  .489316880703E-05  .515359262848E+04
      .597584000000E+06  .819563865662E-07 -.312378139337E+01  .782310962677E-07
      .990013646362E+00  .301187500000E+03 -.714976226064E+00 -.785568436364E-08
     -.168221292806E-09  .100000000000E+01  .230700000000E+04  .000000000000E+00
      .200000000000E+01  .000000000000E+00  .419095158577E-08  .270000000000E+02
      .590418000000E+06  .000000000000E+00  .000000000000E+00  .000000000000E+00
G25 2024 03 30 22 00 00  .492628198117E-03  .909494701773E-12  .000000000000E+00
      .850000000000E+02  .787500000000E+02  .464305054455E-08  .942656650393E+00
      .399537384510E-05  .118038975634E-01  .895000994205E-05  .515359578705E+04
      .597600000000E+06 -.126659870148E-06  .103427185268E+01  .540167093277E-07
      .950822230477E+00  .201843750000E+03  .108480631696E+01 -.819176979152E-08
     -.135362781260E-09  .100000000000E+01  .230700000000E+04  .000000000000E+00
      .200000000000E+01  .000000000000E+00  .558793544769E-08  .850000000000E+02
      .590418000000E+06  .000000000000E+00  .000000000000E+00  .000000000000E+00
G32 2024 03 30 22 00 00 -.617258716375E-03 -.795807864051E-12  .000000000000E+00
      .330000000000E+02 -.137812500000E+02  .473948313278E-08 -.967368446916E+00
     -.661239027977E-06  .770725938492E-02  .669807195663E-05  .515364574623E+04
      .597600000000E+06  .894069671631E-07 -.105284527567E+01  .204890966415E-06
      .961267777164E+00  .252250000000E+03 -.214990258650E+01 -.810712340852E-08
      .200365488884E-09  .100000000000E+01  .230700000000E+04  .000000000000E+00
      .200000000000E+01  .000000000000E+00  .931322574615E-09  .330000000000E+02
      .590418000000E+06  .000000000000E+00  .000000000000E+00  .000000000000E+00
G04 2024 03 30 22 00 00  .327410642058E-03  .886757334229E-11  .000000000000E+00
      .260000000000E+02 -.204062500000E+02  .451983112625E-08 -.199784704372E+01
     -.115297734737E-05  .280222413130E-02  .684522092342E-05  .515376186752E+04
      .597600000000E+06 -.186264514923E-07 -.100814952810E+01 -.111758708954E-07
      .964296605681E+00  .250187500000E+03 -.295094889555E+01 -.788461414011E-08
      .241795786051E-09  .100000000000E+01  .230700000000E+04  .000000000000E+00
      .200000000000E+01  .000000000000E+00 -.465661287308E-08  .260000000000E+02
      .590418000000E+06  .000000000000E+00  .000000000000E+00  .000000000000E+00
G31 2024 03 30 22 00 00 -.228021759540E-03  .000000000000E+00  .000000000000E+00
      .106000000000E+03 -.665625000000E+01  .465947980032E-08  .872704894930E+00
     -.176951289177E-06  .105236369418E-01  .835210084915E-05  .515369512749E+04
      .597600000000E+06 -.158324837685E-06  .262298929460E-01  .102445483208E-06
      .954695279759E+00  .217468750000E+03  .666909098938E+00 -.801247660895E-08
     -.375729936374E-09  .100000000000E+01  .230700000000E+04  .000000000000E+00
      .200000000000E+01  .000000000000E+00 -.130385160446E-07  .106000000000E+03
      .590418000000E+06  .000000000000E+00  .000000000000E+00  .000000000000E+00
G28 2024 03 30 22 00 00 -.184261705726E-03 -.145519152284E-10  .000000000000E+00
      .205000000000E+03 -.950000000000E+01  .453054585828E-08  .266311285117E+00
     -.469386577606E-06  .508437165990E-03  .808946788311E-05  .515361734772E+04
      .597600000000E+06  .000000000000E+00 -.287635119900E-01 -.540167093277E-07
      .961793664030E+00  .225250000000E+03  .174821961076E+01 -.786854204207E-08
     -.269296931584E-09  .100000000000E+01  .230700000000E+04  .000000000000E+00
      .200000000000E+01  .000000000000E+00 -.931322574615E-08  .973000000000E+03
      .590418000000E+06  .000000000000E+00  .000000000000E+00  .000000000000E+00
G12 2024 03 30 22 00 00 -.492093153298E-03 -.352429196937E-11  .000000000000E+00
      .100000000000E+03  .789375000000E+02  .434303804782E-08  .101070732187E+01
      .402890145779E-05  .893646967597E-02  .865757465363E-05  .515368345451E+04
      .597600000000E+06 -.124797224998E-06  .112019792602E+01 -.409781932831E-07
      .962855586023E+00  .213281250000E+03  .143120530687E+01 -.802604860285E-08
     -.260725145963E-10  .100000000000E+01  .230700000000E+04  .000000000000E+00
      .200000000000E+01  .000000000000E+00 -.125728547573E-07  .100000000000E+03
      .590418000000E+06  .000000000000E+00  .000000000000E+00  .000000000000E+00
G03 2024 03 30 22 00 00  .283002387732E-03  .219415596803E-10  .000000000000E+00
      .350000000000E+02 -.683125000000E+02  .379837250318E-08  .133294707551E+01
     -.357814133167E-05  .524509721436E-02  .903569161892E-05  .515375963593E+04
      .597600000000E+06 -.130385160446E-06 -.208758107673E+01  .223517417908E-07
      .983456812421E+00  .218437500000E+03  .106424881426E+01 -.769174896365E-08
      .176435920693E-09  .100000000000E+01  .230700000000E+04  .000000000000E+00
      .200000000000E+01  .000000000000E+00  .186264514923E-08  .350000000000E+02
      .590418000000E+06  .000000000000E+00  .000000000000E+00  .000000000000E+00
G21 2024 03 30 22 00 00  .129243824631E-03 -.159161572810E-11  .000000000000E+00
      .330000000000E+02 -.605312500000E+02  .462269255370E-08 -.180514117099E+01
     -.303052365780E-05  .252487687394E-01  .466592609882E-05  .515370986938E+04
      .597600000000E+06 -.631436705589E-06  .305558685561E+01 -.108033418655E-06
      .961995311195E+00  .297000000000E+03 -.598108305977E+00 -.836641992354E-08
     -.510735559900E-10  .100000000000E+01  .230700000000E+04  .000000000000E+00
      .200000000000E+01  .000000000000E+00 -.102445483208E-07  .330000000000E+02
      .590418000000E+06  .000000000000E+00  .000000000000E+00  .000000000000E+00
G17 2024 03 30 22 00 00  .711564905941E-03 -.159161572810E-11  .000000000000E+00
      .510000000000E+02  .583125000000E+02  .453340312015E-08 -.167442272142E+01
      .335834920406E-05  .134425578872E-01  .381097197533E-05  .515369968224E+04
      .597600000000E+06 -.147148966789E-06  .215979233988E+01  .348314642906E-06
      .969553645687E+00  .313218750000E+03 -.132730142887E+01 -.817069748520E-08
      .350014579512E-10  .100000000000E+01  .230700000000E+04  .000000000000E+00
      .200000000000E+01  .000000000000E+00 -.111758708954E-07  .510000000000E+02
      .590418000000E+06  .000000000000E+00  .000000000000E+00  .000000000000E+00
G19 2024 03 30 22 00 00  .461351126432E-03  .534328137292E-11  .000000000000E+00
      .800000000000E+02  .458437500000E+02  .462376402690E-08  .350800255027E+00
      .228919088840E-05  .963043654338E-02  .361353158951E-05  .515369504738E+04
      .597600000000E+06  .242143869400E-07  .220416193279E+01 -.102445483208E-06
      .968745213749E+00  .314500000000E+03  .250053228576E+01 -.834927635230E-08
      .332156692802E-10  .100000000000E+01  .230700000000E+04  .000000000000E+00
      .200000000000E+01  .000000000000E+00 -.153668224812E-07  .800000000000E+02
      .590418000000E+06  .000000000000E+00  .000000000000E+00  .000000000000E+00
G02 2024 03 30 22 00 00 -.461596529931E-03  .636646291241E-11  .000000000000E+00
      .550000000000E+02 -.515000000000E+02  .451840249531E-08 -.142729534232E+01
     -.245124101639E-05  .160589047009E-01  .439397990704E-05  .515370947456E+04
      .597600000000E+06 -.374391674995E-06  .306243302402E+01  .234693288803E-06
      .967728143362E+00  .303375000000E+03 -.121205949395E+01 -.833641867387E-08
     -.131791203918E-09  .100000000000E+01  .230700000000E+04  .000000000000E+00
      .200000000000E+01  .000000000000E+00 -.176951289177E-07  .550000000000E+02
      .590418000000E+06  .000000000000E+00  .000000000000E+00  .000000000000E+00
G05 2024 03 30 22 00 00 -.167343765497E-03 -.136424205266E-11  .000000000000E+00
      .300000000000E+02 -.542500000000E+02  .413124351145E-08 -.134141508757E+01
     -.284053385258E-05  .571259635035E-02  .874325633049E-05  .515358772087E+04
      .597600000000E+06  .614672899246E-07 -.213816534897E+01  .145286321640E-06
      .970464427762E+00  .215312500000E+03  .123213800217E+01 -.780925385820E-08
      .111790370803E-09  .000000000000E+00  .230700000000E+04  .000000000000E+00
      .200000000000E+01  .000000000000E+00 -.107102096081E-07  .300000000000E+02
      .590418000000E+06  .000000000000E+00  .000000000000E+00  .000000000000E+00
G07 2024 03 30 21 59 44 -.963201746344E-04 -.852651282912E-11  .000000000000E+00
      .880000000000E+02 -.120312500000E+02  .483448709008E-08  .172994415932E+01
     -.800937414169E-06  .182372238487E-01  .843964517117E-05  .515365017891E+04
      .597584000000E+06 -.396743416786E-06  .498329877440E-02 -.270083546638E-06
      .950694178331E+00  .215687500000E+03 -.213850954873E+01 -.810890919719E-08
     -.260367988229E-09  .000000000000E+00  .230700000000E+04  .000000000000E+00
      .200000000000E+01  .000000000000E+00 -.111758708954E-07  .880000000000E+02
      .590418000000E+06  .000000000000E+00  .000000000000E+00  .000000000000E+00
